{
  "type": "FeatureCollection",
  "features": [
    {
      "type": "Feature",
      "properties": {
        "norad_id": 66583,
        "name": "STARLINK-35941",
        "group": "last-30-days",
        "lat": 41.236036420492844,
        "lon": -160.78146388863556,
        "alt_km": 409.65755932150296,
        "timestamp": "2025-12-11T08:58:25.854818+00:00",
        "meta_object_name": "STARLINK-35941",
        "meta_object_id": "2025-268AC",
        "meta_epoch": "2025-12-11T04:00:01.998720",
        "meta_mean_motion": 15.50603554,
        "meta_eccentricity": 0.0001745,
        "meta_inclination": 43.0004,
        "meta_ra_of_asc_node": 130.2717,
        "meta_arg_of_pericenter": 267.8528,
        "meta_mean_anomaly": 89.2615,
        "meta_ephemeris_type": 0,
        "meta_classification_type": "U",
        "meta_norad_cat_id": 66583,
        "meta_element_set_no": 999,
        "meta_rev_at_epoch": 441,
        "meta_bstar": -0.0015037,
        "meta_mean_motion_dot": -0.00087657,
        "meta_mean_motion_ddot": 0,
        "tle_line1": "1 66583U 25268AC  25345.16668980 -.00087657  00000+0 -15037-2 0  9996",
        "tle_line2": "2 66583  43.0004 130.2717 0001745 267.8528  89.2615 15.50603554  4411"
      },
      "geometry": {
        "type": "Point",
        "coordinates": [
          -160.78146388863556,
          41.236036420492844
        ]
      }
    },
    {
      "type": "Feature",
      "properties": {
        "norad_id": 66584,
        "name": "STARLINK-35939",
        "group": "last-30-days",
        "lat": 41.67195431638101,
        "lon": -158.1642657932993,
        "alt_km": 409.39810921742173,
        "timestamp": "2025-12-11T08:58:25.854831+00:00",
        "meta_object_name": "STARLINK-35939",
        "meta_object_id": "2025-268AD",
        "meta_epoch": "2025-12-11T04:00:01.998720",
        "meta_mean_motion": 15.50749479,
        "meta_eccentricity": 0.0001596,
        "meta_inclination": 43.0003,
        "meta_ra_of_asc_node": 130.2678,
        "meta_arg_of_pericenter": 267.328,
        "meta_mean_anomaly": 91.729,
        "meta_ephemeris_type": 0,
        "meta_classification_type": "U",
        "meta_norad_cat_id": 66584,
        "meta_element_set_no": 999,
        "meta_rev_at_epoch": 441,
        "meta_bstar": -0.0060242,
        "meta_mean_motion_dot": -0.00340884,
        "meta_mean_motion_ddot": 0,
        "tle_line1": "1 66584U 25268AD  25345.16668980 -.00340884  00000+0 -60242-2 0  9999",
        "tle_line2": "2 66584  43.0003 130.2678 0001596 267.3280  91.7290 15.50749479  4415"
      },
      "geometry": {
        "type": "Point",
        "coordinates": [
          -158.1642657932993,
          41.67195431638101
        ]
      }
    },
    {
      "type": "Feature",
      "properties": {
        "norad_id": 66585,
        "name": "STARLINK-35963",
        "group": "last-30-days",
        "lat": 42.014896167895756,
        "lon": -155.76715664930472,
        "alt_km": 409.4391414461652,
        "timestamp": "2025-12-11T08:58:25.854865+00:00",
        "meta_object_name": "STARLINK-35963",
        "meta_object_id": "2025-268AE",
        "meta_epoch": "2025-12-11T04:00:01.998720",
        "meta_mean_motion": 15.50605031,
        "meta_eccentricity": 0.0001562,
        "meta_inclination": 43.0005,
        "meta_ra_of_asc_node": 130.2629,
        "meta_arg_of_pericenter": 263.9487,
        "meta_mean_anomaly": 96.9964,
        "meta_ephemeris_type": 0,
        "meta_classification_type": "U",
        "meta_norad_cat_id": 66585,
        "meta_element_set_no": 999,
        "meta_rev_at_epoch": 441,
        "meta_bstar": -0.0015175,
        "meta_mean_motion_dot": -0.00088452,
        "meta_mean_motion_ddot": 0,
        "tle_line1": "1 66585U 25268AE  25345.16668980 -.00088452  00000+0 -15175-2 0  9995",
        "tle_line2": "2 66585  43.0005 130.2629 0001562 263.9487  96.9964 15.50605031  4418"
      },
      "geometry": {
        "type": "Point",
        "coordinates": [
          -155.76715664930472,
          42.014896167895756
        ]
      }
    },
    {
      "type": "Feature",
      "properties": {
        "norad_id": 66586,
        "name": "TJS-21",
        "group": "last-30-days",
        "lat": 59.315176036915254,
        "lon": -139.35811970408173,
        "alt_km": 35080.72418557687,
        "timestamp": "2025-12-11T08:58:25.854882+00:00",
        "meta_object_name": "TJS-21",
        "meta_object_id": "2025-269A",
        "meta_epoch": "2025-12-09T17:35:27.978144",
        "meta_mean_motion": 2.00565752,
        "meta_eccentricity": 0.68056573,
        "meta_inclination": 63.268,
        "meta_ra_of_asc_node": 162.6671,
        "meta_arg_of_pericenter": 269.7843,
        "meta_mean_anomaly": 18.6559,
        "meta_ephemeris_type": 0,
        "meta_classification_type": "U",
        "meta_norad_cat_id": 66586,
        "meta_element_set_no": 999,
        "meta_rev_at_epoch": 37,
        "meta_bstar": -0.041606579,
        "meta_mean_motion_dot": 1.08e-05,
        "meta_mean_motion_ddot": 0,
        "tle_line1": "1 66586U 25269A   25343.73296271  .00001080  00000+0 -41607-1 0  9997",
        "tle_line2": "2 66586  63.2680 162.6671 6805657 269.7843  18.6559  2.00565752   379"
      },
      "geometry": {
        "type": "Point",
        "coordinates": [
          -139.35811970408173,
          59.315176036915254
        ]
      }
    },
    {
      "type": "Feature",
      "properties": {
        "norad_id": 66587,
        "name": "CZ-3B R/B",
        "group": "last-30-days",
        "lat": 19.368608488567187,
        "lon": -173.73418877763618,
        "alt_km": 30587.724489047465,
        "timestamp": "2025-12-11T08:58:25.854896+00:00",
        "meta_object_name": "CZ-3B R/B",
        "meta_object_id": "2025-269B",
        "meta_epoch": "2025-12-10T07:44:42.689184",
        "meta_mean_motion": 2.03033273,
        "meta_eccentricity": 0.7519666,
        "meta_inclination": 51.3444,
        "meta_ra_of_asc_node": 170.2038,
        "meta_arg_of_pericenter": 228.2816,
        "meta_mean_anomaly": 37.6674,
        "meta_ephemeris_type": 0,
        "meta_classification_type": "U",
        "meta_norad_cat_id": 66587,
        "meta_element_set_no": 999,
        "meta_rev_at_epoch": 40,
        "meta_bstar": 0.0011971,
        "meta_mean_motion_dot": 0.00055207,
        "meta_mean_motion_ddot": 9.8045e-07,
        "tle_line1": "1 66587U 25269B   25344.32271631  .00055207  98045-6  11971-2 0  9991",
        "tle_line2": "2 66587  51.3444 170.2038 7519666 228.2816  37.6674  2.03033273   405"
      },
      "geometry": {
        "type": "Point",
        "coordinates": [
          -173.73418877763618,
          19.368608488567187
        ]
      }
    },
    {
      "type": "Feature",
      "properties": {
        "norad_id": 66588,
        "name": "STARLINK-36076",
        "group": "last-30-days",
        "lat": -29.46884369532223,
        "lon": 163.3973847379447,
        "alt_km": 419.7331479942568,
        "timestamp": "2025-12-11T08:58:25.854908+00:00",
        "meta_object_name": "STARLINK-36076",
        "meta_object_id": "2025-270A",
        "meta_epoch": "2025-12-11T04:00:01.998720",
        "meta_mean_motion": 15.50661257,
        "meta_eccentricity": 6.31e-05,
        "meta_inclination": 42.9996,
        "meta_ra_of_asc_node": 201.938,
        "meta_arg_of_pericenter": 245.0271,
        "meta_mean_anomaly": 350.9897,
        "meta_ephemeris_type": 0,
        "meta_classification_type": "U",
        "meta_norad_cat_id": 66588,
        "meta_element_set_no": 999,
        "meta_rev_at_epoch": 414,
        "meta_bstar": -0.035794,
        "meta_mean_motion_dot": -0.0189293,
        "meta_mean_motion_ddot": 0,
        "tle_line1": "1 66588U 25270A   25345.16668980 -.01892930  00000+0 -35794-1 0  9994",
        "tle_line2": "2 66588  42.9996 201.9380 0000631 245.0271 350.9897 15.50661257  4146"
      },
      "geometry": {
        "type": "Point",
        "coordinates": [
          163.3973847379447,
          -29.46884369532223
        ]
      }
    },
    {
      "type": "Feature",
      "properties": {
        "norad_id": 66589,
        "name": "STARLINK-35447",
        "group": "last-30-days",
        "lat": -27.259703591770666,
        "lon": 167.14688743440178,
        "alt_km": 416.70491374339053,
        "timestamp": "2025-12-11T08:58:25.854918+00:00",
        "meta_object_name": "STARLINK-35447",
        "meta_object_id": "2025-270B",
        "meta_epoch": "2025-12-11T04:00:01.998720",
        "meta_mean_motion": 15.50632245,
        "meta_eccentricity": 0.0001977,
        "meta_inclination": 42.9999,
        "meta_ra_of_asc_node": 201.9278,
        "meta_arg_of_pericenter": 264.687,
        "meta_mean_anomaly": 335.0219,
        "meta_ephemeris_type": 0,
        "meta_classification_type": "U",
        "meta_norad_cat_id": 66589,
        "meta_element_set_no": 999,
        "meta_rev_at_epoch": 425,
        "meta_bstar": -0.0020688,
        "meta_mean_motion_dot": -0.00120097,
        "meta_mean_motion_ddot": 0,
        "tle_line1": "1 66589U 25270B   25345.16668980 -.00120097  00000+0 -20688-2 0  9999",
        "tle_line2": "2 66589  42.9999 201.9278 0001977 264.6870 335.0219 15.50632245  4251"
      },
      "geometry": {
        "type": "Point",
        "coordinates": [
          167.14688743440178,
          -27.259703591770666
        ]
      }
    }
  ]
}